CALSPHERE 1             
1 00900U 64063C   21349.46758200  .00000261  00000+0  26946-3 0  9997
2 00900  90.1692  37.6055 0026948 211.0292 215.8314 13.73638902845407
CALSPHERE 2             
1 00902U 64063E   21349.12023043  .00000041  00000+0  48581-4 0  9998
2 00902  90.1824  40.5554 0017178 328.1617  90.3674 13.52703510634304
LCS 1                   
1 01361U 65034C   21348.83123395  .00000008  00000+0 -10258-3 0  9998
2 01361  32.1387 123.6380 0013345 303.7634  56.1592  9.89300698 46945
TEMPSAT 1               
1 01512U 65065E   21348.63932878  .00000025  00000+0  31518-4 0  9993
2 01512  89.9039 220.2842 0069583 188.1313 200.4281 13.33442780740749
CALSPHERE 4A            
1 01520U 65065H   21348.89109837  .00000040  00000+0  58595-4 0  9992
2 01520  90.0032 130.1799 0070823  64.5878 103.9573 13.35861707743016
OPS 5712 (P/L 160)      
1 02826U 67053A   21349.50716375  .00000736  00000+0  20643-3 0  9995
2 02826  69.9282   0.3555 0010959 258.1720 101.8184 14.49836213826564
OPS 5712 (P/L 153)      
1 02874U 67053H   21349.47572697 -.00000029  00000+0  17675-4 0  9999
2 02874  69.9750  39.2050 0007592 195.3838 164.7038 13.96382539777625
SURCAL 150B             
1 02909U 67053J   21349.44893075  .00001030  00000+0  21481-3 0  9992
2 02909  69.9479 358.7242 0009049 276.3398  83.6711 14.62812986837198
RIGIDSPHERE 2 (LCS 4)   
1 05398U 71067E   21349.14266037  .00000182  00000+0  57834-4 0  9995
2 05398  87.6222  73.8553 0061129 273.1998  86.2206 14.34071765638079
COSMOS 2493 (SKRL-756 1)
1 39490U 13078A   21349.40603686  .00000349  00000+0  34452-4 0  9993
2 39490  82.4196  50.5067 0016899 352.5808   7.5157 14.88951941432637
COSMOS 2494 (SKRL-756 2)
1 39491U 13078B   21349.42243842  .00000394  00000+0  37785-4 0  9992
2 39491  82.4195  44.6650 0020971 328.3159  31.6796 14.90359305432923
